NORAD_CAT_ID,OBJECT_NAME,OBJECT_TYPE,EPOCH,MEAN_MOTION,ECCENTRICITY,INCLINATION,RA_OF_ASC_NODE,ARG_OF_PERICENTER,MEAN_ANOMALY,BSTAR,MEAN_MOTION_DOT,MEAN_MOTION_DDOT,TLE_LINE0,TLE_LINE1,TLE_LINE2,SEMIMAJOR_AXIS,PERIOD,APOGEE,PERIGEE,DECAYED
56809.0,STARLINK-6040,PAYLOAD,2024-02-24 17:08:35,14.98332109,0.0002857,69.9995,60.1315,271.247,88.8362,-5.4955e-05,-7.49e-06,0.0,0 STARLINK-6040,1 56809U 23078AU  24055.71430116 -.00000749  00000-0 -54955-4 0  9991,2 56809  69.9995  60.1315 0002857 271.2470  88.8362 14.98332109 41503,6950.186,96.107,574.037,570.066,0.0
56809.0,STARLINK-6040,PAYLOAD,2024-02-25 10:46:03,14.98333717,0.0002827,69.9994,58.2794,268.8494,91.2341,9.5973e-06,2.2e-07,0.0,0 STARLINK-6040,1 56809U 23078AU  24056.44865699  .00000022  00000-0  95973-5 0  9998,2 56809  69.9994  58.2794 0002827 268.8494  91.2341 14.98333717 41350,6950.181,96.107,574.011,570.082,0.0
56809.0,STARLINK-6040,PAYLOAD,2024-02-25 17:10:36,14.98340899,0.0002896,69.9998,57.6061,270.9725,89.1102,-0.00020148,-2.497e-05,0.0,0 STARLINK-6040,1 56809U 23078AU  24056.71569672 -.00002497  00000-0 -20148-3 0  9990,2 56809  69.9998  57.6061 0002896 270.9725  89.1102 14.98340899 41654,6950.159,96.106,574.037,570.011,0.0
56809.0,STARLINK-6040,PAYLOAD,2024-02-26 10:48:04,14.98332936,0.0002903,69.9995,55.7541,270.5218,89.5608,5.414e-05,5.53e-06,0.0,0 STARLINK-6040,1 56809U 23078AU  24057.45005495  .00000553  00000-0  54140-4 0  9999,2 56809  69.9995  55.7541 0002903 270.5218  89.5608 14.98332936 41507,6950.184,96.107,574.066,570.031,0.0
56809.0,STARLINK-6040,PAYLOAD,2024-02-27 02:49:26,14.98322967,0.0002823,69.9999,54.0709,269.3079,90.7756,-8.6326e-05,-1.123e-05,0.0,0 STARLINK-6040,1 56809U 23078AU  24058.11766595 -.00001123  00000-0 -86326-4 0  9995,2 56809  69.9999  54.0709 0002823 269.3079  90.7756 14.98322967 41861,6950.215,96.107,574.042,570.118,0.0
56809.0,STARLINK-6040,PAYLOAD,2024-02-27 09:13:58,14.983225,0.0002617,70.0004,53.3984,263.0561,97.0301,-7.3381e-05,-9.68e-06,0.0,0 STARLINK-6040,1 56809U 23078AU  24058.38470676 -.00000968  00000-0 -73381-4 0  9999,2 56809  70.0004  53.3984 0002617 263.0561  97.0301 14.98322500 41641,6950.216,96.107,573.9,570.262,0.0
56809.0,STARLINK-6040,PAYLOAD,2024-02-27 17:14:38,14.98328248,0.0002821,70.0001,52.555,268.2952,91.7884,-5.7124e-05,-7.74e-06,0.0,0 STARLINK-6040,1 56809U 23078AU  24058.71850329 -.00000774  00000-0 -57124-4 0  9995,2 56809  70.0001  52.5550 0002821 268.2952  91.7884 14.98328248 41952,6950.198,96.107,574.024,570.103,0.0
56809.0,STARLINK-6040,PAYLOAD,2024-02-28 09:15:58,14.98333157,0.0002892,69.9997,50.8722,266.985,93.0978,4.9578e-06,-3.4e-07,0.0,0 STARLINK-6040,1 56809U 23078AU  24059.38609786 -.00000034  00000-0  49578-5 0  9991,2 56809  69.9997  50.8722 0002892 266.9850  93.0978 14.98333157 42051,6950.183,96.107,574.058,570.038,0.0
56809.0,STARLINK-6040,PAYLOAD,2024-02-28 17:16:38,14.98339597,0.0003232,69.9995,50.0307,254.9477,105.1324,3.9442e-05,3.78e-06,0.0,0 STARLINK-6040,1 56809U 23078AU  24059.71989036  .00000378  00000-0  39442-4 0  9995,2 56809  69.9995  50.0307 0003232 254.9477 105.1324 14.98339597 42101,6950.163,96.106,574.275,569.782,0.0
56809.0,STARLINK-6040,PAYLOAD,2024-02-29 09:17:58,14.98341841,0.0003096,69.9993,48.3474,267.8435,92.237,0.00028087,3.261e-05,0.0,0 STARLINK-6040,1 56809U 23078AU  24060.38747880  .00003261  00000-0  28087-3 0  9995,2 56809  69.9993  48.3474 0003096 267.8435  92.2370 14.98341841 42202,6950.156,96.106,574.173,569.87,0.0
56809.0,STARLINK-6040,PAYLOAD,2024-02-29 22:07:00,14.98429167,0.0003083,69.9993,47.0005,274.9901,85.0906,-0.0011225,-0.00013495,0.0,0 STARLINK-6040,1 56809U 23078AU  24060.92153802 -.00013495  00000-0 -11225-2 0  9997,2 56809  69.9993  47.0005 0003083 274.9901  85.0906 14.98429167 42024,6949.886,96.101,573.894,569.609,0.0
56809.0,STARLINK-6040,PAYLOAD,2024-03-01 02:55:26,14.98338205,0.0002924,69.9993,46.4954,254.2304,105.8533,2.4293e-05,1.97e-06,0.0,0 STARLINK-6040,1 56809U 23078AU  24061.12183750  .00000197  00000-0  24293-4 0  9999,2 56809  69.9993  46.4954 0002924 254.2304 105.8533 14.98338205 42312,6950.168,96.106,574.065,570.0,0.0
56809.0,STARLINK-6040,PAYLOAD,2024-03-01 09:19:59,14.98328096,0.0003063,69.9997,45.8226,272.1357,87.9451,-0.00013163,-1.663e-05,0.0,0 STARLINK-6040,1 56809U 23078AU  24061.38888884 -.00001663  00000-0 -13163-3 0  9991,2 56809  69.9997  45.8226 0003063 272.1357  87.9451 14.98328096 42353,6950.199,96.107,574.193,569.935,0.0
56809.0,STARLINK-6040,PAYLOAD,2024-03-01 15:44:32,14.98327431,0.0003214,69.9994,45.1488,268.6586,91.4205,-0.0001913,-2.375e-05,0.0,0 STARLINK-6040,1 56809U 23078AU  24061.65592955 -.00002375  00000-0 -19130-3 0  9993,2 56809  69.9994  45.1488 0003214 268.6586  91.4205 14.98327431 42130,6950.201,96.107,574.3,569.832,0.0
56809.0,STARLINK-6040,PAYLOAD,2024-03-02 07:45:52,14.98331826,0.0003031,69.9999,43.4659,268.9175,91.1636,-0.00022381,-2.763e-05,0.0,0 STARLINK-6040,1 56809U 23078AU  24062.32352781 -.00002763  00000-0 -22381-3 0  9992,2 56809  69.9999  43.4659 0003031 268.9175  91.1636 14.98331826 42239,6950.187,96.107,574.159,569.946,0.0
56809.0,STARLINK-6040,PAYLOAD,2024-03-03 04:35:37,14.98333274,0.0002975,70.0,41.278,265.595,94.4869,-0.00034664,-4.227e-05,0.0,0 STARLINK-6040,1 56809U 23078AU  24063.19141080 -.00004227  00000-0 -34664-3 0  9990,2 56809  70.0000  41.2780 0002975 265.5950  94.4869 14.98333274 42622,6950.183,96.107,574.115,569.98,0.0
56809.0,STARLINK-6040,PAYLOAD,2024-03-03 07:47:53,14.98334875,0.0002979,70.0,40.9412,265.7849,94.2969,-0.00031698,-3.874e-05,0.0,0 STARLINK-6040,1 56809U 23078AU  24063.32492913 -.00003874  00000-0 -31698-3 0  9990,2 56809  70.0000  40.9412 0002979 265.7849  94.2969 14.98334875 42383,6950.178,96.107,574.113,569.972,0.0
56809.0,STARLINK-6040,PAYLOAD,2024-03-04 07:49:54,14.98328399,0.0002846,70.0002,38.417,264.2521,95.8313,0.00014847,1.679e-05,0.0,0 STARLINK-6040,1 56809U 23078AU  24064.32632873  .00001679  00000-0  14847-3 0  9998,2 56809  70.0002  38.4170 0002846 264.2521  95.8313 14.98328399 42791,6950.198,96.107,574.041,570.085,0.0
56809.0,STARLINK-6040,PAYLOAD,2024-03-04 15:50:35,14.98321003,0.0002709,70.0013,37.5717,262.4862,97.599,5.5644e-05,5.71e-06,0.0,0 STARLINK-6040,1 56809U 23078AU  24064.66013711  .00000571  00000-0  55644-4 0  9990,2 56809  70.0013  37.5717 0002709 262.4862  97.5990 14.98321003 42847,6950.221,96.108,573.969,570.203,0.0
56809.0,STARLINK-6040,PAYLOAD,2024-03-04 22:15:08,14.98317532,0.0002759,69.9999,36.8988,262.2637,97.8209,5.5923e-05,5.74e-06,0.0,0 STARLINK-6040,1 56809U 23078AU  24064.92717999  .00000574  00000-0  55923-4 0  9991,2 56809  69.9999  36.8988 0002759 262.2637  97.8209 14.98317532 42626,6950.231,96.108,574.014,570.179,0.0
56809.0,STARLINK-6040,PAYLOAD,2024-03-05 03:03:33,14.98314973,0.0002892,69.9998,36.3944,265.1713,94.9115,3.5951e-06,-5e-07,0.0,0 STARLINK-6040,1 56809U 23078AU  24065.12746538 -.00000050  00000-0  35951-5 0  9995,2 56809  69.9998  36.3944 0002892 265.1713  94.9115 14.98314973 42919,6950.239,96.108,574.114,570.094,0.0
56809.0,STARLINK-6040,PAYLOAD,2024-03-05 07:51:57,14.98310058,0.0002896,70.0002,35.8897,265.1973,94.8855,-3.3489e-05,-4.92e-06,0.0,0 STARLINK-6040,1 56809U 23078AU  24065.32775168 -.00000492  00000-0 -33489-4 0  9992,2 56809  70.0002  35.8897 0002896 265.1973  94.8855 14.98310058 42685,6950.255,96.108,574.132,570.107,0.0
56809.0,STARLINK-6040,PAYLOAD,2024-03-06 04:41:41,14.98331895,0.0003054,70.0004,33.7032,270.9696,89.1113,5.0038e-06,-3.3e-07,0.0,0 STARLINK-6040,1 56809U 23078AU  24066.19562191 -.00000033  00000-0  50038-5 0  9998,2 56809  70.0004  33.7032 0003054 270.9696  89.1113 14.98331895 43078,6950.187,96.107,574.175,569.929,0.0
56809.0,STARLINK-6040,PAYLOAD,2024-03-06 07:53:57,14.98334522,0.000307,70.0004,33.3665,270.9066,89.1741,3.9838e-05,3.82e-06,0.0,0 STARLINK-6040,1 56809U 23078AU  24066.32913935  .00000382  00000-0  39838-4 0  9999,2 56809  70.0004  33.3665 0003070 270.9066  89.1741 14.98334522 42835,6950.179,96.107,574.178,569.91,0.0
56809.0,STARLINK-6040,PAYLOAD,2024-03-07 14:20:30,14.98330637,0.000275,70.0009,30.1682,277.2301,82.8545,0.00014657,1.656e-05,0.0,0 STARLINK-6040,1 56809U 23078AU  24067.59757662  .00001656  00000-0  14657-3 0  9998,2 56809  70.0009  30.1682 0002750 277.2301  82.8545 14.98330637 43027,6950.191,96.107,573.967,570.145,0.0
56809.0,STARLINK-6040,PAYLOAD,2024-03-08 01:33:27,14.98331522,0.000285,70.0006,28.9903,274.0024,86.081,-1.5819e-05,-2.82e-06,0.0,0 STARLINK-6040,1 56809U 23078AU  24068.06489976 -.00000282  00000-0 -15819-4 0  9999,2 56809  70.0006  28.9903 0002850 274.0024  86.0810 14.98331522 43354,6950.188,96.107,574.034,570.072,0.0
56809.0,STARLINK-6040,PAYLOAD,2024-03-08 14:22:32,14.9831285,0.000267,70.0014,27.6441,270.7004,89.3849,0.00032701,3.809e-05,0.0,0 STARLINK-6040,1 56809U 23078AU  24068.59898298  .00003809  00000-0  32701-3 0  9992,2 56809  70.0014  27.6441 0002670 270.7004  89.3849 14.98312850 43178,6950.246,96.108,573.967,570.255,0.0
56809.0,STARLINK-6040,PAYLOAD,2024-03-08 20:47:03,14.98336638,0.0002673,70.0013,26.9718,270.9134,89.1719,-9.124e-05,-1.182e-05,0.0,0 STARLINK-6040,1 56809U 23078AU  24068.86601624 -.00001182  00000-0 -91240-4 0  9995,2 56809  70.0013  26.9718 0002673 270.9134  89.1719 14.98336638 43214,6950.172,96.107,573.895,570.18,0.0
56809.0,STARLINK-6040,PAYLOAD,2024-03-09 03:11:35,14.98336753,0.0002764,70.0013,26.2986,262.8197,97.2648,-0.00010209,-1.311e-05,0.0,0 STARLINK-6040,1 56809U 23078AU  24069.13305474 -.00001311  00000-0 -10209-3 0  9999,2 56809  70.0013  26.2986 0002764 262.8197  97.2648 14.98336753 43516,6950.172,96.107,573.958,570.116,0.0
56809.0,STARLINK-6040,PAYLOAD,2024-03-09 14:24:32,14.98335053,0.000268,70.0014,25.1186,276.0181,84.0672,-0.00017522,-2.183e-05,0.0,0 STARLINK-6040,1 56809U 23078AU  24069.60037682 -.00002183  00000-0 -17522-3 0  9997,2 56809  70.0014  25.1186 0002680 276.0181  84.0672 14.98335053 43326,6950.177,96.107,573.905,570.18,0.0
